PROGRESS-MS 33          
1 68319U 26058A   26110.13518311  .00007929  00000+0  15272-3 0  9997
2 68319  51.6328 227.4156 0006665 328.2959  31.7627 15.48842238  3163
STARLINK-36987          
1 68321U 26059A   26110.25002315 -.02180666  00000+0 -40578-1 0  9995
2 68321  53.1593 155.3510 0001132 112.2312   5.3409 15.51800751  5725
STARLINK-37088          
1 68322U 26059B   26110.25002315 -.00588256  00000+0 -11235-1 0  9999
2 68322  53.1591 155.4122 0000938 104.7553 341.9627 15.49690963  5720
STARLINK-36983          
1 68323U 26059C   26110.25002315  .00003551  00000+0  71796-4 0  9999
2 68323  53.1596 155.7339 0001028  40.9354 247.2374 15.49339717  5724
STARLINK-37164          
1 68324U 26059D   26110.25002315 -.02158948  00000+0 -44489-1 0  9991
2 68324  53.1599 155.5070 0001299  57.3963 342.7637 15.48915167  5727
STARLINK-36309          
1 68325U 26059E   26110.25002315 -.03280116  00000+0 -60921-1 0  9995
2 68325  53.1590 155.3262 0002063  60.1421  68.7406 15.52162309  5727
STARLINK-37206          
1 68326U 26059F   26110.25002315 -.01193427  00000+0 -22810-1 0  9997
2 68326  53.1593 155.3676 0001132  96.0299  12.6724 15.50191691  5722
STARLINK-37199          
1 68327U 26059G   26110.00003472  .00087081  00000+0  15594-2 0  9993
2 68327  53.1585 157.5107 0000973  68.0482 337.2595 15.49254188  5688
STARLINK-36245          
1 68328U 26059H   26110.25002315 -.02179169  00000+0 -44311-1 0  9997
2 68328  53.1597 155.4601 0001957  76.0191 346.3217 15.49318491  5722
STARLINK-37204          
1 68329U 26059J   26110.25002315 -.00004176  00000+0 -67041-4 0  9999
2 68329  53.1594 155.7312 0001110  74.4281 214.6935 15.49319254  5727
STARLINK-37001          
1 68330U 26059K   26109.00002315  .00096558  00000+0  17243-2 0  9992
2 68330  53.1576 162.4112 0001106  89.8594  75.9341 15.49284813  5523
STARLINK-36932          
1 68331U 26059L   26110.25002315  .00001688  00000+0  38445-4 0  9991
2 68331  53.1591 155.3488 0000887  68.9334  48.5525 15.49274223  5729
STARLINK-37205          
1 68332U 26059M   26110.25002315 -.02174733  00000+0 -48926-1 0  9990
2 68332  53.1597 155.7087 0001128  59.1063 240.2377 15.46447192  5725
STARLINK-37180          
1 68333U 26059N   26108.00004630  .00071742  00000+0  12882-2 0  9998
2 68333  53.1592 167.3041 0000985  64.1526 225.9322 15.49263587  5367
STARLINK-37191          
1 68334U 26059P   26110.25002315 -.00429382  00000+0 -80962-2 0  9990
2 68334  53.1594 155.6952 0001331 102.3228 204.2286 15.49474766  5723
STARLINK-37217          
1 68335U 26059Q   26110.25002315 -.00000829  00000+0 -68351-5 0  9993
2 68335  53.1591 155.7362 0001370  74.8944 210.9779 15.49313893  5722
