[{"OBJECT_NAME":"PROGRESS-MS 33","OBJECT_ID":"2026-058A","EPOCH":"2026-04-20T03:14:39.820704","MEAN_MOTION":15.48842238,"ECCENTRICITY":0.00066653,"INCLINATION":51.6328,"RA_OF_ASC_NODE":227.4156,"ARG_OF_PERICENTER":328.2959,"MEAN_ANOMALY":31.7627,"EPHEMERIS_TYPE":0,"CLASSIFICATION_TYPE":"U","NORAD_CAT_ID":68319,"ELEMENT_SET_NO":999,"REV_AT_EPOCH":316,"BSTAR":0.00015271588,"MEAN_MOTION_DOT":7.929e-5,"MEAN_MOTION_DDOT":0},{"OBJECT_NAME":"STARLINK-36987","OBJECT_ID":"2026-059A","EPOCH":"2026-04-20T06:00:02.000160","MEAN_MOTION":15.51800751,"ECCENTRICITY":0.00011326,"INCLINATION":53.1593,"RA_OF_ASC_NODE":155.351,"ARG_OF_PERICENTER":112.2312,"MEAN_ANOMALY":5.3409,"EPHEMERIS_TYPE":0,"CLASSIFICATION_TYPE":"U","NORAD_CAT_ID":68321,"ELEMENT_SET_NO":999,"REV_AT_EPOCH":572,"BSTAR":-0.04057756,"MEAN_MOTION_DOT":-0.02180666,"MEAN_MOTION_DDOT":0},{"OBJECT_NAME":"STARLINK-37088","OBJECT_ID":"2026-059B","EPOCH":"2026-04-20T06:00:02.000160","MEAN_MOTION":15.49690963,"ECCENTRICITY":9.388e-5,"INCLINATION":53.1591,"RA_OF_ASC_NODE":155.4122,"ARG_OF_PERICENTER":104.7553,"MEAN_ANOMALY":341.9627,"EPHEMERIS_TYPE":0,"CLASSIFICATION_TYPE":"U","NORAD_CAT_ID":68322,"ELEMENT_SET_NO":999,"REV_AT_EPOCH":572,"BSTAR":-0.011234642,"MEAN_MOTION_DOT":-0.00588256,"MEAN_MOTION_DDOT":0},{"OBJECT_NAME":"STARLINK-36983","OBJECT_ID":"2026-059C","EPOCH":"2026-04-20T06:00:02.000160","MEAN_MOTION":15.49339717,"ECCENTRICITY":0.0001028,"INCLINATION":53.1596,"RA_OF_ASC_NODE":155.7339,"ARG_OF_PERICENTER":40.9354,"MEAN_ANOMALY":247.2374,"EPHEMERIS_TYPE":0,"CLASSIFICATION_TYPE":"U","NORAD_CAT_ID":68323,"ELEMENT_SET_NO":999,"REV_AT_EPOCH":572,"BSTAR":7.1795609e-5,"MEAN_MOTION_DOT":3.551e-5,"MEAN_MOTION_DDOT":0},{"OBJECT_NAME":"STARLINK-37164","OBJECT_ID":"2026-059D","EPOCH":"2026-04-20T06:00:02.000160","MEAN_MOTION":15.48915167,"ECCENTRICITY":0.00012995,"INCLINATION":53.1599,"RA_OF_ASC_NODE":155.507,"ARG_OF_PERICENTER":57.3963,"MEAN_ANOMALY":342.7637,"EPHEMERIS_TYPE":0,"CLASSIFICATION_TYPE":"U","NORAD_CAT_ID":68324,"ELEMENT_SET_NO":999,"REV_AT_EPOCH":572,"BSTAR":-0.044489459,"MEAN_MOTION_DOT":-0.02158948,"MEAN_MOTION_DDOT":0},{"OBJECT_NAME":"STARLINK-36309","OBJECT_ID":"2026-059E","EPOCH":"2026-04-20T06:00:02.000160","MEAN_MOTION":15.52162309,"ECCENTRICITY":0.00020639,"INCLINATION":53.159,"RA_OF_ASC_NODE":155.3262,"ARG_OF_PERICENTER":60.1421,"MEAN_ANOMALY":68.7406,"EPHEMERIS_TYPE":0,"CLASSIFICATION_TYPE":"U","NORAD_CAT_ID":68325,"ELEMENT_SET_NO":999,"REV_AT_EPOCH":572,"BSTAR":-0.060920697,"MEAN_MOTION_DOT":-0.03280116,"MEAN_MOTION_DDOT":0},{"OBJECT_NAME":"STARLINK-37206","OBJECT_ID":"2026-059F","EPOCH":"2026-04-20T06:00:02.000160","MEAN_MOTION":15.50191691,"ECCENTRICITY":0.00011323,"INCLINATION":53.1593,"RA_OF_ASC_NODE":155.3676,"ARG_OF_PERICENTER":96.0299,"MEAN_ANOMALY":12.6724,"EPHEMERIS_TYPE":0,"CLASSIFICATION_TYPE":"U","NORAD_CAT_ID":68326,"ELEMENT_SET_NO":999,"REV_AT_EPOCH":572,"BSTAR":-0.022809846,"MEAN_MOTION_DOT":-0.01193427,"MEAN_MOTION_DDOT":0},{"OBJECT_NAME":"STARLINK-37199","OBJECT_ID":"2026-059G","EPOCH":"2026-04-20T00:00:02.999808","MEAN_MOTION":15.49254188,"ECCENTRICITY":9.73e-5,"INCLINATION":53.1585,"RA_OF_ASC_NODE":157.5107,"ARG_OF_PERICENTER":68.0482,"MEAN_ANOMALY":337.2595,"EPHEMERIS_TYPE":0,"CLASSIFICATION_TYPE":"U","NORAD_CAT_ID":68327,"ELEMENT_SET_NO":999,"REV_AT_EPOCH":568,"BSTAR":0.0015593696,"MEAN_MOTION_DOT":0.00087081,"MEAN_MOTION_DDOT":0},{"OBJECT_NAME":"STARLINK-36245","OBJECT_ID":"2026-059H","EPOCH":"2026-04-20T06:00:02.000160","MEAN_MOTION":15.49318491,"ECCENTRICITY":0.00019574,"INCLINATION":53.1597,"RA_OF_ASC_NODE":155.4601,"ARG_OF_PERICENTER":76.0191,"MEAN_ANOMALY":346.3217,"EPHEMERIS_TYPE":0,"CLASSIFICATION_TYPE":"U","NORAD_CAT_ID":68328,"ELEMENT_SET_NO":999,"REV_AT_EPOCH":572,"BSTAR":-0.04431149,"MEAN_MOTION_DOT":-0.02179169,"MEAN_MOTION_DDOT":0},{"OBJECT_NAME":"STARLINK-37204","OBJECT_ID":"2026-059J","EPOCH":"2026-04-20T06:00:02.000160","MEAN_MOTION":15.49319254,"ECCENTRICITY":0.00011102,"INCLINATION":53.1594,"RA_OF_ASC_NODE":155.7312,"ARG_OF_PERICENTER":74.4281,"MEAN_ANOMALY":214.6935,"EPHEMERIS_TYPE":0,"CLASSIFICATION_TYPE":"U","NORAD_CAT_ID":68329,"ELEMENT_SET_NO":999,"REV_AT_EPOCH":572,"BSTAR":-6.7041261e-5,"MEAN_MOTION_DOT":-4.176e-5,"MEAN_MOTION_DDOT":0},{"OBJECT_NAME":"STARLINK-37001","OBJECT_ID":"2026-059K","EPOCH":"2026-04-19T00:00:02.000160","MEAN_MOTION":15.49284813,"ECCENTRICITY":0.00011063,"INCLINATION":53.1576,"RA_OF_ASC_NODE":162.4112,"ARG_OF_PERICENTER":89.8594,"MEAN_ANOMALY":75.9341,"EPHEMERIS_TYPE":0,"CLASSIFICATION_TYPE":"U","NORAD_CAT_ID":68330,"ELEMENT_SET_NO":999,"REV_AT_EPOCH":552,"BSTAR":0.001724256,"MEAN_MOTION_DOT":0.00096558,"MEAN_MOTION_DDOT":0},{"OBJECT_NAME":"STARLINK-36932","OBJECT_ID":"2026-059L","EPOCH":"2026-04-20T06:00:02.000160","MEAN_MOTION":15.49274223,"ECCENTRICITY":8.877e-5,"INCLINATION":53.1591,"RA_OF_ASC_NODE":155.3488,"ARG_OF_PERICENTER":68.9334,"MEAN_ANOMALY":48.5525,"EPHEMERIS_TYPE":0,"CLASSIFICATION_TYPE":"U","NORAD_CAT_ID":68331,"ELEMENT_SET_NO":999,"REV_AT_EPOCH":572,"BSTAR":3.8444583e-5,"MEAN_MOTION_DOT":1.688e-5,"MEAN_MOTION_DDOT":0},{"OBJECT_NAME":"STARLINK-37205","OBJECT_ID":"2026-059M","EPOCH":"2026-04-20T06:00:02.000160","MEAN_MOTION":15.46447192,"ECCENTRICITY":0.00011282,"INCLINATION":53.1597,"RA_OF_ASC_NODE":155.7087,"ARG_OF_PERICENTER":59.1063,"MEAN_ANOMALY":240.2377,"EPHEMERIS_TYPE":0,"CLASSIFICATION_TYPE":"U","NORAD_CAT_ID":68332,"ELEMENT_SET_NO":999,"REV_AT_EPOCH":572,"BSTAR":-0.048925908,"MEAN_MOTION_DOT":-0.02174733,"MEAN_MOTION_DDOT":0},{"OBJECT_NAME":"STARLINK-37180","OBJECT_ID":"2026-059N","EPOCH":"2026-04-18T00:00:04.000320","MEAN_MOTION":15.49263587,"ECCENTRICITY":9.854e-5,"INCLINATION":53.1592,"RA_OF_ASC_NODE":167.3041,"ARG_OF_PERICENTER":64.1526,"MEAN_ANOMALY":225.9322,"EPHEMERIS_TYPE":0,"CLASSIFICATION_TYPE":"U","NORAD_CAT_ID":68333,"ELEMENT_SET_NO":999,"REV_AT_EPOCH":536,"BSTAR":0.001288202,"MEAN_MOTION_DOT":0.00071742,"MEAN_MOTION_DDOT":0},{"OBJECT_NAME":"STARLINK-37191","OBJECT_ID":"2026-059P","EPOCH":"2026-04-20T06:00:02.000160","MEAN_MOTION":15.49474766,"ECCENTRICITY":0.00013313,"INCLINATION":53.1594,"RA_OF_ASC_NODE":155.6952,"ARG_OF_PERICENTER":102.3228,"MEAN_ANOMALY":204.2286,"EPHEMERIS_TYPE":0,"CLASSIFICATION_TYPE":"U","NORAD_CAT_ID":68334,"ELEMENT_SET_NO":999,"REV_AT_EPOCH":572,"BSTAR":-0.0080962146,"MEAN_MOTION_DOT":-0.00429382,"MEAN_MOTION_DDOT":0},{"OBJECT_NAME":"STARLINK-37217","OBJECT_ID":"2026-059Q","EPOCH":"2026-04-20T06:00:02.000160","MEAN_MOTION":15.49313893,"ECCENTRICITY":0.00013705,"INCLINATION":53.1591,"RA_OF_ASC_NODE":155.7362,"ARG_OF_PERICENTER":74.8944,"MEAN_ANOMALY":210.9779,"EPHEMERIS_TYPE":0,"CLASSIFICATION_TYPE":"U","NORAD_CAT_ID":68335,"ELEMENT_SET_NO":999,"REV_AT_EPOCH":572,"BSTAR":-6.835119e-6,"MEAN_MOTION_DOT":-8.29e-6,"MEAN_MOTION_DDOT":0}]
